[
  {
    "type": "Feature",
    "properties": {
      "name": "Greencoat",
      "desc": "Mainly Masters teaching here"
    },
    "geometry": {
      "type": "Point",
      "coordinates": [
        -0.08614718914031984,
        51.4723718881289
      ]
    }
  },
  {
    "type": "Feature",
    "properties": {
      "name": "Route between PR and GC",
      "desc": "For foot or bike"
    },
    "geometry": {
      "type": "LineString",
      "coordinates": [
        [
          -0.08012294769287111,
          51.473804513499694
        ],
        [
          -0.08116364479064943,
          51.47371095566495
        ],
        [
          -0.08301973342895508,
          51.4737577346063
        ],
        [
          -0.08481144905090333,
          51.47361739763829
        ],
        [
          -0.08645296096801759,
          51.47349710846497
        ],
        [
          -0.08669972419738771,
          51.47347037749447
        ],
        [
          -0.08593797683715822,
          51.47238776002667
        ]
      ]
    }
  },
  {
    "type": "Feature",
    "properties": {
      "name": "Peckham Road",
      "desc": "BSC happens here, amongst other things"
    },
    "geometry": {
      "type": "Polygon",
      "coordinates": [
        [
          [
            -0.0812119245529175,
            51.473791983443675
          ],
          [
            -0.0813567638397217,
            51.47456716976322
          ],
          [
            -0.07923245429992677,
            51.47490463900214
          ],
          [
            -0.07908225059509279,
            51.47411943444423
          ]
        ]
      ]
    }
  }
]
